NORAD_CAT_ID,OBJECT_NAME,OBJECT_TYPE,EPOCH,MEAN_MOTION,ECCENTRICITY,INCLINATION,RA_OF_ASC_NODE,ARG_OF_PERICENTER,MEAN_ANOMALY,BSTAR,MEAN_MOTION_DOT,MEAN_MOTION_DDOT,TLE_LINE0,TLE_LINE1,TLE_LINE2,SEMIMAJOR_AXIS,PERIOD,APOGEE,PERIGEE,DECAYED
54804.0,STARLINK-5422,PAYLOAD,2023-05-29 14:57:30,15.08839697,7.01e-05,53.2167,265.6036,102.3659,257.7412,0.00014814,2.071e-05,0.0,0 STARLINK-5422,1 54804U 22175AY  23149.62326656  .00002071  00000-0  14814-3 0  9994,2 54804  53.2167 265.6036 0000701 102.3659 257.7412 15.08839697 26898,6917.881,95.438,540.231,539.261,0.0
54804.0,STARLINK-5422,PAYLOAD,2023-05-30 00:29:49,15.08842035,6.09e-05,53.2166,263.8195,95.1499,264.9563,6.7599e-05,7.88e-06,0.0,0 STARLINK-5422,1 54804U 22175AY  23150.02070673  .00000788  00000-0  67599-4 0  9997,2 54804  53.2166 263.8195 0000609  95.1499 264.9563 15.08842035 24795,6917.874,95.437,540.16,539.318,0.0
54804.0,STARLINK-5422,PAYLOAD,2023-05-30 10:02:08,15.08833774,6.1e-05,53.216,262.0363,100.371,259.7351,-3.9044e-05,-9.09e-06,0.0,0 STARLINK-5422,1 54804U 22175AY  23150.41815525 -.00000909  00000-0 -39044-4 0  9994,2 54804  53.2160 262.0363 0000610 100.3710 259.7351 15.08833774 24858,6917.899,95.438,540.186,539.342,0.0
54804.0,STARLINK-5422,PAYLOAD,2023-05-30 11:37:31,15.08834917,6.16e-05,53.216,261.739,109.3586,250.7472,-3.8832e-05,-9.05e-06,0.0,0 STARLINK-5422,1 54804U 22175AY  23150.48439444 -.00000905  00000-0 -38832-4 0  9993,2 54804  53.2160 261.7390 0000616 109.3586 250.7472 15.08834917 27027,6917.896,95.438,540.187,539.335,0.0
54804.0,STARLINK-5422,PAYLOAD,2023-05-30 16:23:40,15.0884039,6.51e-05,53.2163,260.8464,96.4395,263.6672,1.0753e-05,-1.16e-06,0.0,0 STARLINK-5422,1 54804U 22175AY  23150.68310988 -.00000116  00000-0  10753-4 0  9991,2 54804  53.2163 260.8464 0000651  96.4395 263.6672 15.08840390 24894,6917.879,95.438,540.195,539.294,0.0
54804.0,STARLINK-5422,PAYLOAD,2023-05-31 13:03:41,15.08842266,5.99e-05,53.2163,256.9794,94.2882,265.8179,3.5709e-05,2.81e-06,0.0,0 STARLINK-5422,1 54804U 22175AY  23151.54422907  .00000281  00000-0  35709-4 0  9992,2 54804  53.2163 256.9794 0000599  94.2882 265.8179 15.08842266 27189,6917.873,95.437,540.153,539.324,0.0
54804.0,STARLINK-5422,PAYLOAD,2023-05-31 14:39:04,15.08844475,6.1e-05,53.2165,256.6819,90.6659,269.4403,5.6301e-05,6.09e-06,0.0,0 STARLINK-5422,1 54804U 22175AY  23151.61046726  .00000609  00000-0  56301-4 0  9996,2 54804  53.2165 256.6819 0000610  90.6659 269.4403 15.08844475 27197,6917.867,95.437,540.154,539.31,0.0
54804.0,STARLINK-5422,PAYLOAD,2023-06-01 00:11:23,15.08842643,6.11e-05,53.2165,254.8978,89.0075,271.0987,7.279e-05,8.71e-06,0.0,0 STARLINK-5422,1 54804U 22175AY  23152.00790774  .00000871  00000-0  72790-4 0  9990,2 54804  53.2165 254.8978 0000611  89.0075 271.0987 15.08842643 25096,6917.872,95.437,540.16,539.315,0.0
54804.0,STARLINK-5422,PAYLOAD,2023-06-01 06:32:56,15.08825826,6.99e-05,53.2163,253.7084,84.2951,275.8121,0.00029355,4.385e-05,0.0,0 STARLINK-5422,1 54804U 22175AY  23152.27287334  .00004385  00000-0  29355-3 0  9994,2 54804  53.2163 253.7084 0000699  84.2951 275.8121 15.08825826 27296,6917.924,95.438,540.272,539.305,0.0
54804.0,STARLINK-5422,PAYLOAD,2023-06-02 00:02:10,15.08842198,7.71e-05,53.2172,250.4382,72.8094,287.2983,9.9504e-05,1.296e-05,0.0,0 STARLINK-5422,1 54804U 22175AY  23153.00150843  .00001296  00000-0  99504-4 0  9992,2 54804  53.2172 250.4382 0000771  72.8094 287.2983 15.08842198 25240,6917.874,95.437,540.272,539.205,0.0
54804.0,STARLINK-5422,PAYLOAD,2023-06-02 09:34:30,15.08829365,6.66e-05,53.2167,248.6544,70.8587,289.2478,4.5455e-05,4.36e-06,0.0,0 STARLINK-5422,1 54804U 22175AY  23153.39895835  .00000436  00000-0  45455-4 0  9992,2 54804  53.2167 248.6544 0000666  70.8587 289.2478 15.08829365 25300,6917.913,95.438,540.239,539.317,0.0
54804.0,STARLINK-5422,PAYLOAD,2023-06-02 12:45:16,15.08834255,9.57e-05,53.2174,248.0601,69.3366,290.7728,8.3472e-06,-1.55e-06,0.0,0 STARLINK-5422,1 54804U 22175AY  23153.53143731 -.00000155  00000-0  83472-5 0  9990,2 54804  53.2174 248.0601 0000957  69.3366 290.7728 15.08834255 27487,6917.898,95.438,540.425,539.101,0.0
54804.0,STARLINK-5422,PAYLOAD,2023-06-02 23:52:57,15.08838709,9.1e-05,53.2175,245.9782,71.6996,288.4095,2.2683e-05,7.3e-07,0.0,0 STARLINK-5422,1 54804U 22175AY  23153.99511438  .00000073  00000-0  22683-4 0  9997,2 54804  53.2175 245.9782 0000910  71.6996 288.4095 15.08838709 25395,6917.884,95.438,540.379,539.12,0.0
54804.0,STARLINK-5422,PAYLOAD,2023-06-03 12:36:02,15.08838453,7.1e-05,53.2167,243.5976,98.8489,261.2583,8.2761e-06,-1.56e-06,0.0,0 STARLINK-5422,1 54804U 22175AY  23154.52503428 -.00000156  00000-0  82761-5 0  9994,2 54804  53.2167 243.5976 0000710  98.8489 261.2583 15.08838453 27637,6917.885,95.438,540.241,539.259,0.0
54804.0,STARLINK-5422,PAYLOAD,2023-06-03 15:46:49,15.0884101,7.17e-05,53.2167,243.0021,106.3091,253.798,2.2659e-05,7.3e-07,0.0,0 STARLINK-5422,1 54804U 22175AY  23154.65751192  .00000073  00000-0  22659-4 0  9997,2 54804  53.2167 243.0021 0000717 106.3091 253.7980 15.08841010 27656,6917.877,95.437,540.238,539.246,0.0
54804.0,STARLINK-5422,PAYLOAD,2023-06-04 01:19:08,15.08835037,6.95e-05,53.2166,241.2174,105.5206,254.5863,7.6111e-05,9.24e-06,0.0,0 STARLINK-5422,1 54804U 22175AY  23155.05495411  .00000924  00000-0  76111-4 0  9998,2 54804  53.2166 241.2174 0000695 105.5206 254.5863 15.08835037 25556,6917.896,95.438,540.241,539.28,0.0
54804.0,STARLINK-5422,PAYLOAD,2023-06-04 12:26:49,15.08841018,6.58e-05,53.2166,239.1358,106.1645,253.942,8.7187e-05,1.1e-05,0.0,0 STARLINK-5422,1 54804U 22175AY  23155.51863108  .00001100  00000-0  87187-4 0  9993,2 54804  53.2166 239.1358 0000658 106.1645 253.9420 15.08841018 27784,6917.877,95.437,540.197,539.287,0.0
54804.0,STARLINK-5422,PAYLOAD,2023-06-04 15:37:35,15.08842528,6.64e-05,53.2166,238.5408,108.2394,251.867,9.6676e-05,1.251e-05,0.0,0 STARLINK-5422,1 54804U 22175AY  23155.65110968  .00001251  00000-0  96676-4 0  9997,2 54804  53.2166 238.5408 0000664 108.2394 251.8670 15.08842528 25648,6917.873,95.437,540.197,539.278,0.0
54804.0,STARLINK-5422,PAYLOAD,2023-06-04 21:59:09,15.08827443,7.23e-05,53.2165,237.3504,121.6344,238.4719,0.00019929,2.884e-05,0.0,0 STARLINK-5422,1 54804U 22175AY  23155.91607688  .00002884  00000-0  19929-3 0  9994,2 54804  53.2165 237.3504 0000723 121.6344 238.4719 15.08827443 27849,6917.919,95.438,540.284,539.284,0.0
54804.0,STARLINK-5422,PAYLOAD,2023-06-05 02:45:18,15.08836146,7.42e-05,53.2163,236.4584,118.3454,241.7613,5.3895e-05,5.7e-06,0.0,0 STARLINK-5422,1 54804U 22175AY  23156.11479533  .00000570  00000-0  53895-4 0  9994,2 54804  53.2163 236.4584 0000742 118.3454 241.7613 15.08836146 25715,6917.892,95.438,540.27,539.244,0.0
54804.0,STARLINK-5422,PAYLOAD,2023-06-05 12:17:36,15.08843284,6.48e-05,53.2164,234.6767,92.4902,267.6165,0.00010663,1.41e-05,0.0,0 STARLINK-5422,1 54804U 22175AY  23156.51223027  .00001410  00000-0  10663-3 0  9992,2 54804  53.2164 234.6767 0000648  92.4902 267.6165 15.08843284 27930,6917.87,95.437,540.184,539.287,0.0
54804.0,STARLINK-5422,PAYLOAD,2023-06-06 08:57:38,15.0883511,8.22e-05,53.2175,230.8171,85.3332,274.7754,-9.9104e-07,-3.03e-06,0.0,0 STARLINK-5422,1 54804U 22175AY  23157.37336074 -.00000303  00000-0 -99104-6 0  9996,2 54804  53.2175 230.8171 0000822  85.3332 274.7754 15.08835110 25908,6917.895,95.438,540.329,539.192,0.0
54804.0,STARLINK-5422,PAYLOAD,2023-06-06 10:33:01,15.08833762,7.39e-05,53.2172,230.519,87.0145,273.0931,-1.2996e-05,-4.94e-06,0.0,0 STARLINK-5422,1 54804U 22175AY  23157.43960157 -.00000494  00000-0 -12996-4 0  9991,2 54804  53.2172 230.5190 0000739  87.0145 273.0931 15.08833762 28072,6917.899,95.438,540.276,539.253,0.0
54804.0,STARLINK-5422,PAYLOAD,2023-06-06 23:16:06,15.08844222,9.83e-05,53.2184,228.1384,81.5265,278.5839,-6.0123e-05,-1.245e-05,0.0,0 STARLINK-5422,1 54804U 22175AY  23157.96951697 -.00001245  00000-0 -60123-4 0  9998,2 54804  53.2184 228.1384 0000983  81.5265 278.5839 15.08844222 25994,6917.867,95.437,540.413,539.052,0.0
54804.0,STARLINK-5422,PAYLOAD,2023-06-07 08:48:25,15.08839836,7.74e-05,53.2165,226.3508,95.9233,264.1847,4.7131e-05,4.63e-06,0.0,0 STARLINK-5422,1 54804U 22175AY  23158.36695714  .00000463  00000-0  47131-4 0  9991,2 54804  53.2165 226.3508 0000774  95.9233 264.1847 15.08839836 28216,6917.881,95.438,540.281,539.21,0.0
54804.0,STARLINK-5422,PAYLOAD,2023-06-07 21:31:30,15.08846943,8.38e-05,53.2169,223.9722,91.0342,269.0746,-5.3188e-05,-1.134e-05,0.0,0 STARLINK-5422,1 54804U 22175AY  23158.89687529 -.00001134  00000-0 -53188-4 0  9991,2 54804  53.2169 223.9722 0000838  91.0342 269.0746 15.08846943 28297,6917.859,95.437,540.304,539.144,0.0
54804.0,STARLINK-5422,PAYLOAD,2023-06-08 08:39:12,15.08834316,7.67e-05,53.2164,221.8906,88.1858,271.9222,9.352e-05,1.201e-05,0.0,0 STARLINK-5422,1 54804U 22175AY  23159.36056023  .00001201  00000-0  93520-4 0  9990,2 54804  53.2164 221.8906 0000767  88.1858 271.9222 15.08834316 26204,6917.898,95.438,540.293,539.232,0.0
54804.0,STARLINK-5422,PAYLOAD,2023-06-08 11:49:58,15.08839189,7.64e-05,53.2161,221.2955,87.4644,272.6436,8.2688e-05,1.029e-05,0.0,0 STARLINK-5422,1 54804U 22175AY  23159.49303790  .00001029  00000-0  82688-4 0  9991,2 54804  53.2161 221.2955 0000764  87.4644 272.6436 15.08839189 28380,6917.883,95.438,540.276,539.219,0.0
54804.0,STARLINK-5422,PAYLOAD,2023-06-09 10:05:22,15.08842732,7.89e-05,53.216,217.1325,84.9551,275.1531,6.1773e-05,6.96e-06,0.0,0 STARLINK-5422,1 54804U 22175AY  23160.42039589  .00000696  00000-0  61773-4 0  9999,2 54804  53.2160 217.1325 0000789  84.9551 275.1531 15.08842732 26368,6917.872,95.437,540.283,539.191,0.0
54804.0,STARLINK-5422,PAYLOAD,2023-06-09 21:13:24,15.08601711,0.0001236,53.2158,215.0522,83.9163,276.197,-0.0018866,-0.00029993,0.0,0 STARLINK-5422,1 54804U 22175AY  23160.88430624 -.00029993  00000-0 -18866-2 0  9990,2 54804  53.2158 215.0522 0001236  83.9163 276.1970 15.08601711 28592,6918.609,95.453,541.329,539.619,0.0
